COSMOS 2493 (SKRL-756 1)
1 39490U 13078A   26068.88109627  .00005252  00000+0  40276-3 0  9992
2 39490  82.4165 358.3033 0011855 214.7485 145.2966 15.01584319663059
STARLINK-6323           
1 56524U 23065X   26068.46297874 -.00014072  00000+0 -10272-2 0  9996
2 56524  43.0041 211.3152 0001811 271.8883  88.1752 15.02589583156592
